[{"OBJECT_NAME":"KUIPER-00279","OBJECT_ID":"2026-030AH","EPOCH":"2026-03-09T15:18:32.160672","MEAN_MOTION":15.35417463,"ECCENTRICITY":0.0006492,"INCLINATION":51.8796,"RA_OF_ASC_NODE":219.4677,"ARG_OF_PERICENTER":47.8727,"MEAN_ANOMALY":312.281,"EPHEMERIS_TYPE":0,"CLASSIFICATION_TYPE":"U","NORAD_CAT_ID":67795,"ELEMENT_SET_NO":999,"REV_AT_EPOCH":508,"BSTAR":0.00063535,"MEAN_MOTION_DOT":0.00021889,"MEAN_MOTION_DDOT":0},{"OBJECT_NAME":"CREW DRAGON 12","OBJECT_ID":"2026-031A","EPOCH":"2026-03-10T03:48:27.801504","MEAN_MOTION":15.485572,"ECCENTRICITY":0.00079716,"INCLINATION":51.6324,"RA_OF_ASC_NODE":70.0375,"ARG_OF_PERICENTER":176.2903,"MEAN_ANOMALY":183.8146,"EPHEMERIS_TYPE":0,"CLASSIFICATION_TYPE":"U","NORAD_CAT_ID":67796,"ELEMENT_SET_NO":999,"REV_AT_EPOCH":55629,"BSTAR":0.00017625562,"MEAN_MOTION_DOT":9.13e-5,"MEAN_MOTION_DDOT":0},{"OBJECT_NAME":"STARLINK-36800","OBJECT_ID":"2026-032A","EPOCH":"2026-03-10T06:21:59.986368","MEAN_MOTION":15.75238346,"ECCENTRICITY":0.0001342,"INCLINATION":97.2849,"RA_OF_ASC_NODE":255.7755,"ARG_OF_PERICENTER":65.8054,"MEAN_ANOMALY":294.3352,"EPHEMERIS_TYPE":0,"CLASSIFICATION_TYPE":"U","NORAD_CAT_ID":67797,"ELEMENT_SET_NO":999,"REV_AT_EPOCH":487,"BSTAR":0.00091271415,"MEAN_MOTION_DOT":0.00138526,"MEAN_MOTION_DDOT":0},{"OBJECT_NAME":"STARLINK-36798","OBJECT_ID":"2026-032B","EPOCH":"2026-03-10T05:58:36.716448","MEAN_MOTION":15.75367112,"ECCENTRICITY":0.00012322,"INCLINATION":97.2854,"RA_OF_ASC_NODE":255.798,"ARG_OF_PERICENTER":66.6066,"MEAN_ANOMALY":293.5328,"EPHEMERIS_TYPE":0,"CLASSIFICATION_TYPE":"U","NORAD_CAT_ID":67798,"ELEMENT_SET_NO":999,"REV_AT_EPOCH":487,"BSTAR":0.0023216111,"MEAN_MOTION_DOT":0.00364118,"MEAN_MOTION_DDOT":0},{"OBJECT_NAME":"STARLINK-36804","OBJECT_ID":"2026-032C","EPOCH":"2026-03-10T06:19:27.325344","MEAN_MOTION":15.75240913,"ECCENTRICITY":0.00011807,"INCLINATION":97.2851,"RA_OF_ASC_NODE":255.7777,"ARG_OF_PERICENTER":65.4109,"MEAN_ANOMALY":294.7279,"EPHEMERIS_TYPE":0,"CLASSIFICATION_TYPE":"U","NORAD_CAT_ID":67799,"ELEMENT_SET_NO":999,"REV_AT_EPOCH":487,"BSTAR":0.00079190358,"MEAN_MOTION_DOT":0.00119923,"MEAN_MOTION_DDOT":0},{"OBJECT_NAME":"STARLINK-36354","OBJECT_ID":"2026-032D","EPOCH":"2026-03-10T06:03:42.565536","MEAN_MOTION":15.75300695,"ECCENTRICITY":0.0001188,"INCLINATION":97.2855,"RA_OF_ASC_NODE":255.7946,"ARG_OF_PERICENTER":58.5392,"MEAN_ANOMALY":301.5989,"EPHEMERIS_TYPE":0,"CLASSIFICATION_TYPE":"U","NORAD_CAT_ID":67800,"ELEMENT_SET_NO":999,"REV_AT_EPOCH":487,"BSTAR":0.00072866564,"MEAN_MOTION_DOT":0.00110499,"MEAN_MOTION_DDOT":0},{"OBJECT_NAME":"STARLINK-36773","OBJECT_ID":"2026-032E","EPOCH":"2026-03-10T06:14:53.097792","MEAN_MOTION":15.75238387,"ECCENTRICITY":0.00012994,"INCLINATION":97.2853,"RA_OF_ASC_NODE":255.7822,"ARG_OF_PERICENTER":74.1836,"MEAN_ANOMALY":285.9573,"EPHEMERIS_TYPE":0,"CLASSIFICATION_TYPE":"U","NORAD_CAT_ID":67801,"ELEMENT_SET_NO":999,"REV_AT_EPOCH":487,"BSTAR":0.00084986027,"MEAN_MOTION_DOT":0.00128831,"MEAN_MOTION_DDOT":0},{"OBJECT_NAME":"STARLINK-36739","OBJECT_ID":"2026-032F","EPOCH":"2026-03-10T05:48:27.166176","MEAN_MOTION":15.75308069,"ECCENTRICITY":0.00015065,"INCLINATION":97.2853,"RA_OF_ASC_NODE":255.8074,"ARG_OF_PERICENTER":85.5885,"MEAN_ANOMALY":274.5552,"EPHEMERIS_TYPE":0,"CLASSIFICATION_TYPE":"U","NORAD_CAT_ID":67802,"ELEMENT_SET_NO":999,"REV_AT_EPOCH":487,"BSTAR":0.0016059091,"MEAN_MOTION_DOT":0.00247743,"MEAN_MOTION_DDOT":0},{"OBJECT_NAME":"STARLINK-36768","OBJECT_ID":"2026-032G","EPOCH":"2026-03-10T06:06:15.610176","MEAN_MOTION":15.75188518,"ECCENTRICITY":0.00015094,"INCLINATION":97.2852,"RA_OF_ASC_NODE":255.7894,"ARG_OF_PERICENTER":52.879,"MEAN_ANOMALY":307.2613,"EPHEMERIS_TYPE":0,"CLASSIFICATION_TYPE":"U","NORAD_CAT_ID":67803,"ELEMENT_SET_NO":999,"REV_AT_EPOCH":487,"BSTAR":0.00071981335,"MEAN_MOTION_DOT":0.00108604,"MEAN_MOTION_DDOT":0},{"OBJECT_NAME":"STARLINK-36792","OBJECT_ID":"2026-032H","EPOCH":"2026-03-10T06:09:48.221568","MEAN_MOTION":15.75220425,"ECCENTRICITY":0.00012273,"INCLINATION":97.2851,"RA_OF_ASC_NODE":255.786,"ARG_OF_PERICENTER":85.6998,"MEAN_ANOMALY":274.4408,"EPHEMERIS_TYPE":0,"CLASSIFICATION_TYPE":"U","NORAD_CAT_ID":67804,"ELEMENT_SET_NO":999,"REV_AT_EPOCH":487,"BSTAR":0.00062523363,"MEAN_MOTION_DOT":0.00094287,"MEAN_MOTION_DDOT":0},{"OBJECT_NAME":"STARLINK-36782","OBJECT_ID":"2026-032J","EPOCH":"2026-03-10T06:00:02.000160","MEAN_MOTION":15.75190197,"ECCENTRICITY":0.00014403,"INCLINATION":97.2844,"RA_OF_ASC_NODE":255.8404,"ARG_OF_PERICENTER":74.1912,"MEAN_ANOMALY":27.494,"EPHEMERIS_TYPE":0,"CLASSIFICATION_TYPE":"U","NORAD_CAT_ID":67805,"ELEMENT_SET_NO":999,"REV_AT_EPOCH":487,"BSTAR":-0.00018347918,"MEAN_MOTION_DOT":-0.00027409,"MEAN_MOTION_DDOT":0},{"OBJECT_NAME":"STARLINK-36389","OBJECT_ID":"2026-032K","EPOCH":"2026-03-10T05:53:32.496000","MEAN_MOTION":15.75240667,"ECCENTRICITY":0.000128,"INCLINATION":97.2847,"RA_OF_ASC_NODE":255.8011,"ARG_OF_PERICENTER":91.2471,"MEAN_ANOMALY":268.8941,"EPHEMERIS_TYPE":0,"CLASSIFICATION_TYPE":"U","NORAD_CAT_ID":67806,"ELEMENT_SET_NO":999,"REV_AT_EPOCH":487,"BSTAR":0.00091116289,"MEAN_MOTION_DOT":0.00138301,"MEAN_MOTION_DDOT":0},{"OBJECT_NAME":"STARLINK-36382","OBJECT_ID":"2026-032L","EPOCH":"2026-03-10T05:50:29.226048","MEAN_MOTION":15.7529799,"ECCENTRICITY":0.00012244,"INCLINATION":97.2847,"RA_OF_ASC_NODE":255.8035,"ARG_OF_PERICENTER":82.6839,"MEAN_ANOMALY":277.4565,"EPHEMERIS_TYPE":0,"CLASSIFICATION_TYPE":"U","NORAD_CAT_ID":67807,"ELEMENT_SET_NO":999,"REV_AT_EPOCH":487,"BSTAR":0.0015487805,"MEAN_MOTION_DOT":0.00238562,"MEAN_MOTION_DDOT":0},{"OBJECT_NAME":"STARLINK-36811","OBJECT_ID":"2026-032M","EPOCH":"2026-03-10T05:36:15.743520","MEAN_MOTION":15.75255204,"ECCENTRICITY":0.00015861,"INCLINATION":97.2849,"RA_OF_ASC_NODE":255.8179,"ARG_OF_PERICENTER":90.3013,"MEAN_ANOMALY":269.8434,"EPHEMERIS_TYPE":0,"CLASSIFICATION_TYPE":"U","NORAD_CAT_ID":67808,"ELEMENT_SET_NO":999,"REV_AT_EPOCH":487,"BSTAR":0.00090678966,"MEAN_MOTION_DOT":0.00137715,"MEAN_MOTION_DDOT":0},{"OBJECT_NAME":"STARLINK-36795","OBJECT_ID":"2026-032N","EPOCH":"2026-03-10T06:00:39.359520","MEAN_MOTION":15.75250116,"ECCENTRICITY":0.00014218,"INCLINATION":97.2847,"RA_OF_ASC_NODE":255.7936,"ARG_OF_PERICENTER":71.6219,"MEAN_ANOMALY":288.5201,"EPHEMERIS_TYPE":0,"CLASSIFICATION_TYPE":"U","NORAD_CAT_ID":67809,"ELEMENT_SET_NO":999,"REV_AT_EPOCH":487,"BSTAR":0.0010176705,"MEAN_MOTION_DOT":0.00154847,"MEAN_MOTION_DDOT":0},{"OBJECT_NAME":"STARLINK-36807","OBJECT_ID":"2026-032P","EPOCH":"2026-03-10T05:37:47.365536","MEAN_MOTION":15.75242149,"ECCENTRICITY":0.00013327,"INCLINATION":97.2849,"RA_OF_ASC_NODE":255.815,"ARG_OF_PERICENTER":82.4186,"MEAN_ANOMALY":277.723,"EPHEMERIS_TYPE":0,"CLASSIFICATION_TYPE":"U","NORAD_CAT_ID":67810,"ELEMENT_SET_NO":999,"REV_AT_EPOCH":487,"BSTAR":0.00089688376,"MEAN_MOTION_DOT":0.00136105,"MEAN_MOTION_DDOT":0}]
