KUIPER-00279            
1 67795U 26030AH  26068.63787223  .00021889  00000+0  63535-3 0  9997
2 67795  51.8796 219.4677 0006492  47.8727 312.2810 15.35417463  5083
CREW DRAGON 12          
1 67796U 26031A   26069.15865511  .00009130  00000+0  17626-3 0  9999
2 67796  51.6324  70.0375 0007971 176.2903 183.8146 15.48557200556297
STARLINK-36800          
1 67797U 26032A   26069.26527762  .00138526  00000+0  91271-3 0  9996
2 67797  97.2849 255.7755 0001342  65.8054 294.3352 15.75238346  4872
STARLINK-36798          
1 67798U 26032B   26069.24903607  .00364118  00000+0  23216-2 0  9992
2 67798  97.2854 255.7980 0001232  66.6066 293.5328 15.75367112  4877
STARLINK-36804          
1 67799U 26032C   26069.26351071  .00119923  00000+0  79190-3 0  9992
2 67799  97.2851 255.7777 0001180  65.4109 294.7279 15.75240913  4873
STARLINK-36354          
1 67800U 26032D   26069.25257599  .00110499  00000+0  72867-3 0  9997
2 67800  97.2855 255.7946 0001188  58.5392 301.5989 15.75300695  4872
STARLINK-36773          
1 67801U 26032E   26069.26033678  .00128831  00000+0  84986-3 0  9993
2 67801  97.2853 255.7822 0001299  74.1836 285.9573 15.75238387  4876
STARLINK-36739          
1 67802U 26032F   26069.24198109  .00247743  00000+0  16059-2 0  9992
2 67802  97.2853 255.8074 0001506  85.5885 274.5552 15.75308069  4874
STARLINK-36768          
1 67803U 26032G   26069.25434734  .00108604  00000+0  71981-3 0  9999
2 67803  97.2852 255.7894 0001509  52.8790 307.2613 15.75188518  4875
STARLINK-36792          
1 67804U 26032H   26069.25680812  .00094287  00000+0  62523-3 0  9993
2 67804  97.2851 255.7860 0001227  85.6998 274.4408 15.75220425  4870
STARLINK-36782          
1 67805U 26032J   26069.25002315 -.00027409  00000+0 -18348-3 0  9990
2 67805  97.2844 255.8404 0001440  74.1912  27.4940 15.75190197  4873
STARLINK-36389          
1 67806U 26032K   26069.24551500  .00138301  00000+0  91116-3 0  9991
2 67806  97.2847 255.8011 0001280  91.2471 268.8941 15.75240667  4873
STARLINK-36382          
1 67807U 26032L   26069.24339382  .00238562  00000+0  15488-2 0  9991
2 67807  97.2847 255.8035 0001224  82.6839 277.4565 15.75297990  4879
STARLINK-36811          
1 67808U 26032M   26069.23351555  .00137715  00000+0  90679-3 0  9991
2 67808  97.2849 255.8179 0001586  90.3013 269.8434 15.75255204  4874
STARLINK-36795          
1 67809U 26032N   26069.25045555  .00154847  00000+0  10177-2 0  9993
2 67809  97.2847 255.7936 0001421  71.6219 288.5201 15.75250116  4878
STARLINK-36807          
1 67810U 26032P   26069.23457599  .00136105  00000+0  89688-3 0  9999
2 67810  97.2849 255.8150 0001332  82.4186 277.7230 15.75242149  4874
